{
  "norad_id": 65502,
  "name": "STARLINK-35114",
  "history": [
    {
      "epoch": "2026-03-28T15:23:04.892640",
      "apogee_km": 476.0509211755543,
      "perigee_km": 474.3342991747977,
      "latitude_deg": 24.971399985159255,
      "longitude_deg": 71.73876960016787,
      "semi_major_axis_km": 6853.329610175176,
      "eccentricity": 0.00012524,
      "inclination_deg": 53.1603,
      "raan_deg": 182.8289,
      "arg_perigee_deg": 80.5419,
      "mean_anomaly_deg": 279.5723,
      "mean_motion_rev_day": 15.30207522
    },
    {
      "epoch": "2026-03-28T23:13:21.165312",
      "apogee_km": 476.2829724619414,
      "perigee_km": 474.1460974533411,
      "latitude_deg": 53.14537746461547,
      "longitude_deg": 103.09018367994577,
      "semi_major_axis_km": 6853.351534957641,
      "eccentricity": 0.0001559,
      "inclination_deg": 53.1605,
      "raan_deg": 181.3111,
      "arg_perigee_deg": 88.0162,
      "mean_anomaly_deg": 272.1017,
      "mean_motion_rev_day": 15.30200179
    }
  ]
}